ONEWEB-0319             
1 49105U 21075AG  26008.63150327 -.00000023  00000+0 -91709-4 0  9993
2 49105  87.9087  37.5882 0002372  96.7298 263.4104 13.17647269212593
ONEWEB-0323             
1 49106U 21075AH  26008.55264502  .00000363  00000+0  97362-3 0  9991
2 49106  87.8926  22.3450 0002304 102.4575 257.6811 13.12443862213618
ONEWEB-0329             
1 49107U 21075AJ  26008.63996139 -.00000031  00000+0 -11228-3 0  9990
2 49107  87.9083  37.5876 0001845  99.4312 260.7028 13.17649201212576
ONEWEB-0330             
1 49108U 21075AK  26008.64079601 -.00000020  00000+0 -84336-4 0  9997
2 49108  87.9086  37.5941 0001662 101.5287 258.6031 13.17648509212611
ONEWEB-0292             
1 49186U 21083A   26008.49732111 -.00000010  00000+0 -63465-4 0  9996
2 49186  87.8983 351.9920 0001906  87.6641 272.4706 13.13468766209969
ONEWEB-0303             
1 49187U 21083B   26008.50812131  .00000062  00000+0  12532-3 0  9993
2 49187  87.9181   7.1615 0001898  91.0207 269.1143 13.18684822208931
ONEWEB-0306             
1 49188U 21083C   26008.49823282  .00000032  00000+0  48684-4 0  9996
2 49188  87.9179   7.1477 0001546  84.8081 275.3228 13.18685785208971
ONEWEB-0307             
1 49189U 21083D   26008.49138959  .00000122  00000+0  29969-3 0  9991
2 49189  87.8980 351.9836 0001759  85.6902 274.4428 13.13467946209961
